H1 CPF 01  gfz 2021 11 25 01  8291 terrasarx 
H2 0702601  6201 31698    2021 11 25 00 59 42 2021 11 30 00 00 42   120 1 1  0 0 0
H9
10 0 59546  25902.000000  0    6452029.052  -1825608.832   1573586.727
10 0 59546  26022.000000  0    6544371.068  -2039985.614    681486.372
10 0 59546  26142.000000  0    6518874.406  -2219288.186   -222611.460
10 0 59546  26262.000000  0    6376694.264  -2358347.288  -1122792.793
10 0 59546  26382.000000  0    6121128.035  -2452745.902  -2003230.405
10 0 59546  26502.000000  0    5757535.897  -2498932.499  -2848470.082
10 0 59546  26622.000000  0    5293220.944  -2494315.114  -3643706.749
10 0 59546  26742.000000  0    4737273.489  -2437335.279  -4375045.115
10 0 59546  26862.000000  0    4100383.412  -2327520.303  -5029741.224
10 0 59546  26982.000000  0    3394623.906  -2165512.543  -5596419.343
10 0 59546  27102.000000  0    2633214.487  -1953075.319  -6065259.598
10 0 59546  27222.000000  0    1830270.355  -1693076.394  -6428157.695
10 0 59546  27342.000000  0    1000538.865  -1389448.888  -6678855.385
10 0 59546  27462.000000  0     159129.818  -1047130.901  -6813037.210
10 0 59546  27582.000000  0    -678755.158   -671985.647  -6828396.398
10 0 59546  27702.000000  0   -1498090.767   -270702.946  -6724669.972
10 0 59546  27822.000000  0   -2284291.681    149317.496  -6503642.462
10 0 59546  27942.000000  0   -3023466.029    580098.691  -6169117.575
10 0 59546  28062.000000  0   -3702656.120   1013233.261  -5726860.332
10 0 59546  28182.000000  0   -4310065.460   1440042.796  -5184508.403
10 0 59546  28302.000000  0   -4835266.935   1851747.543  -4551452.046
10 0 59546  28422.000000  0   -5269388.792   2239644.955  -3838682.515
10 0 59546  28542.000000  0   -5605272.820   2595290.838  -3058610.080
10 0 59546  28662.000000  0   -5837602.934   2910680.670  -2224855.190
10 0 59546  28782.000000  0   -5963000.405   3178427.195  -1352013.864
10 0 59546  28902.000000  0   -5980081.632   3391930.017   -455401.100
10 0 59546  29022.000000  0   -5889476.676   3545532.150    449222.405
10 0 59546  29142.000000  0   -5693807.346   3634658.803   1345935.793
10 0 59546  29262.000000  0   -5397623.011   3655934.964   2218947.398
10 0 59546  29382.000000  0   -5007297.859   3607278.810   3052881.290
10 0 59546  29502.000000  0   -4530893.006   3487968.347   3833055.612
10 0 59546  29622.000000  0   -3977985.058   3298679.592   4545746.868
10 0 59546  29742.000000  0   -3359467.550   3041495.267   5178432.899
10 0 59546  29862.000000  0   -2687330.078   2719885.994   5720012.981
10 0 59546  29982.000000  0   -1974418.887   2338662.564   6160999.390
10 0 59546  30102.000000  0   -1234185.932   1903901.064   6493678.524
10 0 59546  30222.000000  0    -480431.413   1422843.010   6712238.025
10 0 59546  30342.000000  0     272953.170    903772.668   6812862.155
10 0 59546  30462.000000  0    1012240.569    355873.556   6793794.228
10 0 59546  30582.000000  0    1724116.675   -210933.451   6655365.113
10 0 59546  30702.000000  0    2395919.234   -786168.947   6399988.639
10 0 59546  30822.000000  0    3015863.006  -1358988.024   6032122.842
10 0 59546  30942.000000  0    3573248.959  -1918383.966   5558197.797
10 0 59546  31062.000000  0    4058652.833  -2453400.101   4986508.527
10 0 59546  31182.000000  0    4464089.191  -2953345.052   4327075.863
10 0 59546  31302.000000  0    4783149.138  -3408009.179   3591476.297
10 0 59546  31422.000000  0    5011108.566  -3807876.284   2792641.214
10 0 59546  31542.000000  0    5145003.282  -4144325.028   1944628.146
10 0 59546  31662.000000  0    5183667.696  -4409815.748   1062369.722
10 0 59546  31782.000000  0    5127737.864  -4598058.250    161404.938
10 0 59546  31902.000000  0    4979618.101  -4704156.178   -742402.302
10 0 59546  32022.000000  0    4743411.503  -4724723.287  -1633151.671
10 0 59546  32142.000000  0    4424815.990  -4657968.931  -2495194.724
10 0 59546  32262.000000  0    4030989.227  -4503750.756  -3313416.349
10 0 59546  32382.000000  0    3570386.072  -4263594.064  -4073503.420
10 0 59546  32502.000000  0    3052573.606  -3940677.160  -4762195.440
10 0 59546  32622.000000  0    2488027.501  -3539784.082  -5367511.968
10 0 59546  32742.000000  0    1887916.295  -3067226.981  -5878952.256
10 0 59546  32862.000000  0    1263879.773  -2530741.670  -6287666.972
10 0 59546  32982.000000  0     627803.252  -1939357.195  -6586601.825
10 0 59546  33102.000000  0      -8407.297  -1303240.553  -6770608.791
10 0 59546  33222.000000  0    -633043.995   -633521.660  -6836524.501
10 0 59546  33342.000000  0   -1234806.832     57898.388  -6783217.984
10 0 59546  33462.000000  0   -1803003.506    758553.746  -6611607.407
10 0 59546  33582.000000  0   -2327734.956   1455632.777  -6324645.697
10 0 59546  33702.000000  0   -2800064.229   2136206.514  -5927275.254
10 0 59546  33822.000000  0   -3212167.961   2787463.669  -5426352.561
10 0 59546  33942.000000  0   -3557467.944   3396950.137  -4830541.750
10 0 59546  34062.000000  0   -3830740.915   3952808.004  -4150175.809
10 0 59546  34182.000000  0   -4028202.115   4444009.005  -3397086.336
10 0 59546  34302.000000  0   -4147560.410   4860577.554  -2584405.665
10 0 59546  34422.000000  0   -4188046.054   5193798.884  -1726343.326
10 0 59546  34542.000000  0   -4150409.136   5436407.380   -837939.404
10 0 59546  34662.000000  0   -4036886.906   5582750.528     65202.690
10 0 59546  34782.000000  0   -3851139.947   5628920.355    967196.532
10 0 59546  34902.000000  0   -3598159.778   5572852.411   1852160.457
10 0 59546  35022.000000  0   -3284148.855   5414387.155   2704508.044
10 0 59546  35142.000000  0   -2916374.583   5155290.625   3509231.493
10 0 59546  35262.000000  0   -2503004.242   4799236.719   4252170.978
10 0 59546  35382.000000  0   -2052924.457   4351752.045   4920267.177
10 0 59546  35502.000000  0   -1575549.982   3820123.896   5501791.623
10 0 59546  35622.000000  0   -1080625.409   3213273.798   5986550.622
10 0 59546  35742.000000  0    -578025.481   2541600.094   6366058.741
10 0 59546  35862.000000  0     -77558.590   1816793.927   6633680.519
10 0 59546  35982.000000  0     411223.672   1051632.702   6784741.080
10 0 59546  36102.000000  0     879208.222    259752.595   6816602.326
10 0 59546  36222.000000  0    1317889.190   -544593.520   6728705.798
10 0 59546  36342.000000  0    1719521.793  -1346791.963   6522582.945
10 0 59546  36462.000000  0    2077259.146  -2132132.932   6201830.213
10 0 59546  36582.000000  0    2385269.937  -2886080.508   5772051.282
10 0 59546  36702.000000  0    2638835.338  -3594543.727   5240764.620
10 0 59546  36822.000000  0    2834422.459  -4244143.100   4617277.422
10 0 59546  36942.000000  0    2969734.275  -4822468.668   3912528.547
10 0 59546  37062.000000  0    3043734.534  -5318324.112   3138899.404
10 0 59546  37182.000000  0    3056646.449  -5721951.257   2309997.538
10 0 59546  37302.000000  0    3009924.527  -6025229.578   1440414.540
10 0 59546  37422.000000  0    2906200.315  -6221844.373    545464.655
10 0 59546  37542.000000  0    2749205.124  -6307421.400   -359090.779
10 0 59546  37662.000000  0    2543669.039  -6279624.530  -1257330.323
10 0 59546  37782.000000  0    2295198.740  -6138209.530  -2133462.514
10 0 59546  37902.000000  0    2010139.002  -5885037.139  -2972110.444
10 0 59546  38022.000000  0    1695419.093  -5524043.455  -3758588.581
10 0 59546  38142.000000  0    1358390.331  -5061166.941  -4479160.607
10 0 59546  38262.000000  0    1006660.822  -4504238.668  -5121276.340
10 0 59546  38382.000000  0     647928.845  -3862838.808  -5673783.912
10 0 59546  38502.000000  0     289819.047  -3148122.148  -6127114.671
10 0 59546  38622.000000  0     -60274.979  -2372616.971  -6473437.744
10 0 59546  38742.000000  0    -395338.664  -1550002.019  -6706783.845
10 0 59546  38862.000000  0    -708872.303   -694865.615  -6823138.139
10 0 59546  38982.000000  0    -995012.646    177550.130  -6820502.043
10 0 59546  39102.000000  0   -1248639.413   1051615.088  -6698922.534
10 0 59546  39222.000000  0   -1465464.767   1911583.889  -6460491.232
10 0 59546  39342.000000  0   -1642104.212   2741872.289  -6109312.226
10 0 59546  39462.000000  0   -1776129.281   3527334.876  -5651440.535
10 0 59546  39582.000000  0   -1866100.239   4253539.635  -5094787.668
10 0 59546  39702.000000  0   -1911578.682   4907035.063  -4448996.804
10 0 59546  39822.000000  0   -1913119.591   5475605.142  -3725285.732
10 0 59546  39942.000000  0   -1872241.887   5948505.188  -2936260.070
10 0 59546  40062.000000  0   -1791378.038   6316674.498  -2095700.340
10 0 59546  40182.000000  0   -1673804.432   6572921.715  -1218323.946
10 0 59546  40302.000000  0   -1523552.861   6712075.411   -319526.378
10 0 59546  40422.000000  0   -1345305.469   6731098.205    584892.217
10 0 59546  40542.000000  0   -1144275.071   6629160.327   1479013.652
10 0 59546  40662.000000  0    -926074.263   6407664.745   2347093.360
10 0 59546  40782.000000  0    -696576.281   6070226.145   3173845.652
10 0 59546  40902.000000  0    -461772.060   5622607.473   3944718.688
10 0 59546  41022.000000  0    -227627.464   5072615.788   4646155.363
10 0 59546  41142.000000  0         57.277   4429954.879   5265836.710
10 0 59546  41262.000000  0     215782.554   3706042.353   5792893.578
10 0 59546  41382.000000  0     414473.583   2913800.009   6218094.302
10 0 59546  41502.000000  0     591592.628   2067414.835   6534001.098
10 0 59546  41622.000000  0     743237.085   1182080.295   6735093.952
10 0 59546  41742.000000  0     866221.488    273720.537   6817861.124
10 0 59546  41862.000000  0     958142.152   -641295.293   6780856.128
10 0 59546  41982.000000  0    1017423.369  -1546447.260   6624722.796
10 0 59546  42102.000000  0    1043344.501  -2425362.560   6352185.111
10 0 59546  42222.000000  0    1036047.556  -3262112.384   5968003.345
10 0 59546  42342.000000  0     996524.277  -4041503.003   5478894.434
99
